
# Worst residual: 3.54 km
# MJD 60226.000000 (2023 Oct  9  0:00)
1969-046E = NORAD 03955 = Vela 5b
1 03955U 69046E   23282.49919926  .00000000  00000-0  00000-0 0 18140
2 03955 030.2456 144.0287 8231021 091.5747 294.4740 00.21357882    06

# Worst residual: 27.47 km
# MJD 60227.000000 (2023 Oct 10  0:00)
1969-046E = NORAD 03955 = Vela 5b
1 03955U 69046E   23283.49919926  .00000000  00000-0  00000-0 0 18141
2 03955 030.2547 143.8568 8229931 091.7195 011.4555 00.21422053    06

# Worst residual: 9.76 km
# MJD 60228.000000 (2023 Oct 11  0:00)
1969-046E = NORAD 03955 = Vela 5b
1 03955U 69046E   23284.49919926  .00000000  00000-0  00000-0 0 18142
2 03955 030.2496 143.6256 8240062 091.8725 088.3531 00.21373641    04

# Worst residual: 4.49 km
# MJD 60229.000000 (2023 Oct 12  0:00)
1969-046E = NORAD 03955 = Vela 5b
1 03955U 69046E   23285.49919926  .00000000  00000-0  00000-0 0 18143
2 03955 030.2604 143.4717 8239226 092.0376 165.1066 00.21348895    00

# Worst residual: 6.74 km
# MJD 60230.000000 (2023 Oct 13  0:00)
1969-046E = NORAD 03955 = Vela 5b
1 03955U 69046E   23286.49919926  .00000000  00000-0  00000-0 0 18144
2 03955 030.2635 143.3953 8236707 092.0721 242.0446 00.21337670    06

# Worst residual: 22.91 km
# MJD 60231.000000 (2023 Oct 14  0:00)
1969-046E = NORAD 03955 = Vela 5b
1 03955U 69046E   23287.49919926  .00000000  00000-0  00000-0 0 18145
2 03955 030.2632 143.2708 8241758 092.1108 319.1120 00.21284340    02

# Worst residual: 23.19 km
# MJD 60232.000000 (2023 Oct 15  0:00)
1969-046E = NORAD 03955 = Vela 5b
1 03955U 69046E   23288.49919926  .00000000  00000-0  00000-0 0 18146
2 03955 030.2660 143.0789 8244549 092.3426 035.9802 00.21381688    09

# Worst residual: 6.14 km
# MJD 60233.000000 (2023 Oct 16  0:00)
1969-046E = NORAD 03955 = Vela 5b
1 03955U 69046E   23289.49919926  .00000000  00000-0  00000-0 0 18147
2 03955 030.2612 142.8500 8247668 092.5406 112.8595 00.21359070    03

# Worst residual: 6.85 km
# MJD 60234.000000 (2023 Oct 17  0:00)
1969-046E = NORAD 03955 = Vela 5b
1 03955U 69046E   23290.49919926  .00000000  00000-0  00000-0 0 18149
2 03955 030.2741 142.8372 8246810 092.5636 189.6521 00.21346896    09

# Worst residual: 5.40 km
# MJD 60235.000000 (2023 Oct 18  0:00)
1969-046E = NORAD 03955 = Vela 5b
1 03955U 69046E   23291.49919926  .00000000  00000-0  00000-0 0 18140
2 03955 030.2690 142.8255 8249042 092.5744 266.4679 00.21353228    07

# Worst residual: 17.02 km
# MJD 60236.000000 (2023 Oct 19  0:00)
1969-046E = NORAD 03955 = Vela 5b
1 03955U 69046E   23292.49919926  .00000000  00000-0  00000-0 0 18141
2 03955 030.2940 142.6183 8249076 092.7598 343.3326 00.21394961    02

# Worst residual: 8.69 km
# MJD 60237.000000 (2023 Oct 20  0:00)
1969-046E = NORAD 03955 = Vela 5b
1 03955U 69046E   23293.49919926  .00000000  00000-0  00000-0 0 18142
2 03955 030.2861 142.3923 8252735 092.9159 060.3861 00.21390137    05

# Worst residual: 5.63 km
# MJD 60238.000000 (2023 Oct 21  0:00)
1969-046E = NORAD 03955 = Vela 5b
1 03955U 69046E   23294.49919926  .00000000  00000-0  00000-0 0 18143
2 03955 030.2914 142.1857 8252477 093.1241 137.2538 00.21363144    09

# Worst residual: 6.05 km
# MJD 60239.000000 (2023 Oct 22  0:00)
1969-046E = NORAD 03955 = Vela 5b
1 03955U 69046E   23295.49919926  .00000000  00000-0  00000-0 0 18144
2 03955 030.3022 141.9464 8249152 093.3293 214.1115 00.21352201    04

# Worst residual: 7.00 km
# MJD 60240.000000 (2023 Oct 23  0:00)
1969-046E = NORAD 03955 = Vela 5b
1 03955U 69046E   23296.49919926  .00000000  00000-0  00000-0 0 18145
2 03955 030.3202 141.7107 8244869 093.4971 290.9671 00.21346904    02

# Worst residual: 38.99 km
# MJD 60241.000000 (2023 Oct 24  0:00)
1969-046E = NORAD 03955 = Vela 5b
1 03955U 69046E   23297.49919926  .00000000  00000-0  00000-0 0 18146
2 03955 030.3376 141.5249 8240033 093.6340 007.8761 00.21428635    07

# Worst residual: 16.14 km
# MJD 60242.000000 (2023 Oct 25  0:00)
1969-046E = NORAD 03955 = Vela 5b
1 03955U 69046E   23298.49919926  .00000000  00000-0  00000-0 0 18147
2 03955 030.3306 141.2805 8255837 093.7213 084.8028 00.21386037    03

# Worst residual: 5.34 km
# MJD 60243.000000 (2023 Oct 26  0:00)
1969-046E = NORAD 03955 = Vela 5b
1 03955U 69046E   23299.49919926  .00000000  00000-0  00000-0 0 18148
2 03955 030.3381 141.0639 8259400 093.8918 161.7874 00.21380469    09

# Worst residual: 10.57 km
# MJD 60244.000000 (2023 Oct 27  0:00)
1969-046E = NORAD 03955 = Vela 5b
1 03955U 69046E   23300.49919926  .00000000  00000-0  00000-0 0 18141
2 03955 030.3401 141.0047 8258050 093.8814 239.0268 00.21367971    09

# Worst residual: 19.67 km
# MJD 60245.000000 (2023 Oct 28  0:00)
1969-046E = NORAD 03955 = Vela 5b
1 03955U 69046E   23301.49919926  .00000000  00000-0  00000-0 0 18142
2 03955 030.3331 140.9215 8262302 093.8687 316.2432 00.21311249    07

# Worst residual: 24.59 km
# MJD 60246.000000 (2023 Oct 29  0:00)
1969-046E = NORAD 03955 = Vela 5b
1 03955U 69046E   23302.49919926  .00000000  00000-0  00000-0 0 18143
2 03955 030.3402 140.6986 8265980 094.1125 033.1224 00.21363594    08

# Worst residual: 4.79 km
# MJD 60247.000000 (2023 Oct 30  0:00)
1969-046E = NORAD 03955 = Vela 5b
1 03955U 69046E   23303.49919926  .00000000  00000-0  00000-0 0 18144
2 03955 030.3202 140.3782 8265874 094.3709 110.1617 00.21372299    03

# Worst residual: 4.34 km
# MJD 60248.000000 (2023 Oct 31  0:00)
1969-046E = NORAD 03955 = Vela 5b
1 03955U 69046E   23304.49919926  .00000000  00000-0  00000-0 0 18145
2 03955 030.3306 140.2713 8265604 094.4321 187.2728 00.21372820    01

# Worst residual: 1.17 km
# MJD 60249.000000 (2023 Nov  1  0:00)
1969-046E = NORAD 03955 = Vela 5b
1 03955U 69046E   23305.49919926  .00000000  00000-0  00000-0 0 18146
2 03955 030.3348 140.1652 8268585 094.4944 264.3440 00.21370602    04

# Worst residual: 20.97 km
# MJD 60250.000000 (2023 Nov  2  0:00)
1969-046E = NORAD 03955 = Vela 5b
1 03955U 69046E   23306.49919926  .00000000  00000-0  00000-0 0 18147
2 03955 030.3755 139.9048 8267131 094.6864 341.2863 00.21390435    00

# Worst residual: 9.74 km
# MJD 60251.000000 (2023 Nov  3  0:00)
1969-046E = NORAD 03955 = Vela 5b
1 03955U 69046E   23307.49919926  .00000000  00000-0  00000-0 0 18148
2 03955 030.3823 139.6964 8272204 094.8127 058.2808 00.21370053    09

# Worst residual: 4.29 km
# MJD 60252.000000 (2023 Nov  4  0:00)
1969-046E = NORAD 03955 = Vela 5b
1 03955U 69046E   23308.49919926  .00000000  00000-0  00000-0 0 18149
2 03955 030.4019 139.6131 8277133 094.8715 135.1582 00.21359725    09

# Worst residual: 3.05 km
# MJD 60253.000000 (2023 Nov  5  0:00)
1969-046E = NORAD 03955 = Vela 5b
1 03955U 69046E   23309.49919926  .00000000  00000-0  00000-0 0 18140
2 03955 030.4095 139.5648 8282077 094.8933 212.1170 00.21363883    09
